OBJECT_NAME,OBJECT_ID,EPOCH,MEAN_MOTION,ECCENTRICITY,INCLINATION,RA_OF_ASC_NODE,ARG_OF_PERICENTER,MEAN_ANOMALY,EPHEMERIS_TYPE,CLASSIFICATION_TYPE,NORAD_CAT_ID,ELEMENT_SET_NO,REV_AT_EPOCH,BSTAR,MEAN_MOTION_DOT,MEAN_MOTION_DDOT
QIANFAN-210,2026-153K,2026-07-20T12:22:09.061824,14.18181383,.000912,88.9922,358.4356,204.1779,155.8983,0,U,69809,999,230,-.10031E+1,-.1914738E-1,0
QIANFAN-211,2026-153L,2026-07-20T08:59:56.457600,14.17562668,.0013835,88.9921,358.4514,185.2924,174.8121,0,U,69810,999,228,-.10876E+1,-.2043255E-1,0
QIANFAN-212,2026-153M,2026-07-20T12:13:43.023936,14.17515635,.0008183,88.9922,358.4348,202.8688,157.2137,0,U,69811,999,230,-.97336E+0,-.1840122E-1,0
QIANFAN-213,2026-153N,2026-07-17T21:48:21.510720,14.21939575,.00078274,88.9917,358.7338,155.5754,204.5809,0,U,69812,999,193,-.9822754E+0,-.2004805E-1,0
QIANFAN-214,2026-153P,2026-07-20T05:19:41.274336,14.22313303,.0011088,88.9910,358.4667,142.4387,217.7581,0,U,69813,999,226,-.91349E+0,-.1886815E-1,0
QIANFAN-215,2026-153Q,2026-07-20T13:47:15.885888,14.24278073,.0008301,88.9854,358.4302,110.5360,249.6723,0,U,69814,999,231,-.10111E+1,-.2145267E-1,0
QIANFAN-216,2026-153R,2026-07-20T20:30:30.197088,14.26676566,.0008778,88.9928,358.3932,166.8673,193.2751,0,U,69815,999,235,.28395E-4,.83E-6,0
QIANFAN-217,2026-153S,2026-07-20T20:29:37.063680,14.26768400,.0008289,88.9927,358.3929,164.3363,195.8089,0,U,69816,999,235,.23222E-4,.71E-6,0
QIANFAN-218,2026-153T,2026-07-20T20:28:55.278912,14.26811996,.000806,88.9930,358.3934,161.7670,198.3814,0,U,69817,999,235,.62581E-4,.166E-5,0
CZ-6A R/B,2026-153U,2026-07-20T19:52:41.988000,14.53450482,.0086888,89.0170,358.3129,68.2029,292.8396,0,U,69818,999,239,.48061E-4,.229E-5,0
STARLINK-37520,2026-154A,2026-07-20T15:09:45.551808,15.80925087,.0002341,53.1579,265.7058,26.5616,333.5526,0,U,69819,999,367,.90929E-3,.18307E-2,0
STARLINK-37553,2026-154B,2026-07-20T15:08:40.649856,15.80921917,.0002414,53.1576,265.7001,28.5394,331.5760,0,U,69820,999,367,.78475E-3,.157407E-2,0
STARLINK-37561,2026-154C,2026-07-20T15:07:36.086592,15.80922000,.0002944,53.1578,265.6953,25.5849,334.5319,0,U,69821,999,367,.93157E-3,.187659E-2,0
STARLINK-37521,2026-154D,2026-07-20T15:06:30.773376,15.80914210,.0001294,53.1576,265.6901,102.7861,257.3306,0,U,69822,999,367,.90983E-3,.183077E-2,0
STARLINK-37628,2026-154E,2026-07-20T15:05:25.999296,15.80921852,.0001238,53.1579,265.6855,78.8914,281.2248,0,U,69823,999,367,.9986E-3,.201511E-2,0
STARLINK-37695,2026-154F,2026-07-20T16:26:28.021920,15.80939412,.0001487,53.1579,265.3214,42.0082,318.1055,0,U,69824,999,368,.94519E-3,.190609E-2,0
STARLINK-37690,2026-154G,2026-07-20T16:34:18.198624,15.80927431,.0001169,53.1580,265.3587,112.4780,247.6366,0,U,69825,999,368,.80764E-3,.162136E-2,0
STARLINK-37710,2026-154H,2026-07-20T16:33:12.248640,15.81021162,.0001174,53.1580,265.3530,35.2473,324.8627,0,U,69826,999,368,.99882E-3,.202507E-2,0
STARLINK-38031,2026-154J,2026-07-20T16:32:08.590848,15.80929303,.0001078,53.1581,265.3479,104.5527,255.5615,0,U,69827,999,368,.7863E-3,.157766E-2,0
STARLINK-38001,2026-154K,2026-07-20T16:31:03.741600,15.80930402,.0001051,53.1582,265.3432,108.8086,251.3051,0,U,69828,999,368,.79951E-3,.160489E-2,0
STARLINK-37622,2026-154L,2026-07-20T14:58:57.086112,15.80918107,.0001181,53.1577,265.6556,84.0964,276.0193,0,U,69829,999,367,.86456E-3,.173774E-2,0
STARLINK-37621,2026-154M,2026-07-20T14:57:51.911136,15.80933767,.0000779,53.1581,265.6499,94.8052,265.3059,0,U,69830,999,367,.75771E-3,.151932E-2,0
STARLINK-37918,2026-154N,2026-07-20T14:56:48.006240,15.80908033,.0003032,53.1586,265.6445,20.9722,339.1425,0,U,69831,999,367,.73966E-3,.148077E-2,0
STARLINK-37887,2026-154P,2026-07-20T16:26:44.127744,15.80957494,.0002672,53.1581,265.3223,155.5266,204.5884,0,U,69832,999,368,.1001E-2,.202368E-2,0
STARLINK-37624,2026-154Q,2026-07-20T16:25:39.827136,15.80945723,.0001206,53.1577,265.3175,95.0124,265.1037,0,U,69833,999,368,.93655E-3,.188876E-2,0
STARLINK-37769,2026-154R,2026-07-20T14:53:32.820864,15.80922924,.0001558,53.1577,265.6291,121.4157,238.7018,0,U,69834,999,367,.88356E-3,.177731E-2,0
STARLINK-37247,2026-154S,2026-07-20T14:52:27.984576,15.80918327,.0001369,53.1575,265.6244,124.5328,235.5824,0,U,69835,999,367,.86841E-3,.174569E-2,0
STARLINK-37569,2026-154T,2026-07-20T10:18:16.730784,15.80936433,.0000977,53.1581,266.5700,75.4821,284.6310,0,U,69836,999,364,.78079E-3,.156689E-2,0
STARLINK-37587,2026-154U,2026-07-20T14:50:19.245120,15.80916545,.0003798,53.1581,265.6137,13.3153,346.7969,0,U,69837,999,367,.81995E-3,.164631E-2,0
STARLINK-37590,2026-154V,2026-07-20T16:20:15.285408,15.80930141,.0002854,53.1579,265.2916,154.7653,205.3510,0,U,69838,999,368,.73204E-3,.146667E-2,0
