QIANFAN-210             
1 69809U 26153K   26201.51538266 -.01914738  00000+0 -10031+1 0  9995
2 69809  88.9922 358.4356 0009120 204.1779 155.8983 14.18181383  2300
QIANFAN-211             
1 69810U 26153L   26201.37495900 -.02043255  00000+0 -10876+1 0  9993
2 69810  88.9921 358.4514 0013835 185.2924 174.8121 14.17562668  2286
QIANFAN-212             
1 69811U 26153M   26201.50952574 -.01840122  00000+0 -97336+0 0  9996
2 69811  88.9922 358.4348 0008183 202.8688 157.2137 14.17515635  2303
QIANFAN-213             
1 69812U 26153N   26198.90858230 -.02004805  00000+0 -98228+0 0  9992
2 69812  88.9917 358.7338 0007827 155.5754 204.5809 14.21939575  1930
QIANFAN-214             
1 69813U 26153P   26201.22200549 -.01886815  00000+0 -91349+0 0  9992
2 69813  88.9910 358.4667 0011088 142.4387 217.7581 14.22313303  2263
QIANFAN-215             
1 69814U 26153Q   26201.57448942 -.02145267  00000+0 -10111+1 0  9991
2 69814  88.9854 358.4302 0008301 110.5360 249.6723 14.24278073  2312
QIANFAN-216             
1 69815U 26153R   26201.85451617  .00000083  00000+0  28395-4 0  9995
2 69815  88.9928 358.3932 0008778 166.8673 193.2751 14.26676566  2352
QIANFAN-217             
1 69816U 26153S   26201.85390120  .00000071  00000+0  23222-4 0  9998
2 69816  88.9927 358.3929 0008289 164.3363 195.8089 14.26768400  2355
QIANFAN-218             
1 69817U 26153T   26201.85341758  .00000166  00000+0  62581-4 0  9998
2 69817  88.9930 358.3934 0008060 161.7670 198.3814 14.26811996  2358
CZ-6A R/B               
1 69818U 26153U   26201.82826375  .00000229  00000+0  48061-4 0  9996
2 69818  89.0170 358.3129 0086888  68.2029 292.8396 14.53450482  2394
STARLINK-37520          
1 69819U 26154A   26201.63177722  .00183070  00000+0  90929-3 0  9997
2 69819  53.1579 265.7058 0002341  26.5616 333.5526 15.80925087  3672
STARLINK-37553          
1 69820U 26154B   26201.63102604  .00157407  00000+0  78475-3 0  9993
2 69820  53.1576 265.7001 0002414  28.5394 331.5760 15.80921917  3671
STARLINK-37561          
1 69821U 26154C   26201.63027878  .00187659  00000+0  93157-3 0  9999
2 69821  53.1578 265.6953 0002944  25.5849 334.5319 15.80922000  3676
STARLINK-37521          
1 69822U 26154D   26201.62952284  .00183077  00000+0  90983-3 0  9991
2 69822  53.1576 265.6901 0001294 102.7861 257.3306 15.80914210  3679
STARLINK-37628          
1 69823U 26154E   26201.62877314  .00201511  00000+0  99860-3 0  9999
2 69823  53.1579 265.6855 0001238  78.8914 281.2248 15.80921852  3672
STARLINK-37695          
1 69824U 26154F   26201.68504655  .00190609  00000+0  94519-3 0  9992
2 69824  53.1579 265.3214 0001487  42.0082 318.1055 15.80939412  3682
STARLINK-37690          
1 69825U 26154G   26201.69048841  .00162136  00000+0  80764-3 0  9995
2 69825  53.1580 265.3587 0001169 112.4780 247.6366 15.80927431  3681
STARLINK-37710          
1 69826U 26154H   26201.68972510  .00202507  00000+0  99882-3 0  9992
2 69826  53.1580 265.3530 0001174  35.2473 324.8627 15.81021162  3682
STARLINK-38031          
1 69827U 26154J   26201.68898832  .00157766  00000+0  78630-3 0  9991
2 69827  53.1581 265.3479 0001078 104.5527 255.5615 15.80929303  3689
STARLINK-38001          
1 69828U 26154K   26201.68823775  .00160489  00000+0  79951-3 0  9999
2 69828  53.1582 265.3432 0001051 108.8086 251.3051 15.80930402  3688
STARLINK-37622          
1 69829U 26154L   26201.62427183  .00173774  00000+0  86456-3 0  9996
2 69829  53.1577 265.6556 0001181  84.0964 276.0193 15.80918107  3675
STARLINK-37621          
1 69830U 26154M   26201.62351749  .00151932  00000+0  75771-3 0  9992
2 69830  53.1581 265.6499 0000779  94.8052 265.3059 15.80933767  3678
STARLINK-37918          
1 69831U 26154N   26201.62277785  .00148077  00000+0  73966-3 0  9990
2 69831  53.1586 265.6445 0003032  20.9722 339.1425 15.80908033  3679
STARLINK-37887          
1 69832U 26154P   26201.68523296  .00202368  00000+0  10010-2 0  9992
2 69832  53.1581 265.3223 0002672 155.5266 204.5884 15.80957494  3683
STARLINK-37624          
1 69833U 26154Q   26201.68448874  .00188876  00000+0  93655-3 0  9995
2 69833  53.1577 265.3175 0001206  95.0124 265.1037 15.80945723  3683
STARLINK-37769          
1 69834U 26154R   26201.62051876  .00177731  00000+0  88356-3 0  9992
2 69834  53.1577 265.6291 0001558 121.4157 238.7018 15.80922924  3678
STARLINK-37247          
1 69835U 26154S   26201.61976834  .00174569  00000+0  86841-3 0  9995
2 69835  53.1575 265.6244 0001369 124.5328 235.5824 15.80918327  3671
STARLINK-37569          
1 69836U 26154T   26201.42936031  .00156689  00000+0  78079-3 0  9997
2 69836  53.1581 266.5700 0000977  75.4821 284.6310 15.80936433  3642
STARLINK-37587          
1 69837U 26154U   26201.61827830  .00164631  00000+0  81995-3 0  9992
2 69837  53.1581 265.6137 0003798  13.3153 346.7969 15.80916545  3675
STARLINK-37590          
1 69838U 26154V   26201.68073247  .00146667  00000+0  73204-3 0  9998
2 69838  53.1579 265.2916 0002854 154.7653 205.3510 15.80930141  3682
